start=new Date('2022-01-04T00:00:00.000Z').valueOf();
sats=[{"MEAN_MOTION_DDOT":"0.0000000000000","ELEMENT_SET_NO":"999","MEAN_ANOMALY":"308.7486","GP_ID":"192969578","MEAN_MOTION_DOT":"0.00000947","CLASSIFICATION_TYPE":"U","REV_AT_EPOCH":"6188","SITE":"AFETR","INCLINATION":"53.0557","ARG_OF_PERICENTER":"51.3660","FILE":"3255250","RCS_SIZE":"LARGE","EPHEMERIS_TYPE":"0","PERIAPSIS":"545.990","ECCENTRICITY":"0.00017560","BSTAR":"0.00008244100000","TLE_LINE2":"2 47158  53.0557 304.7384 0001756  51.3660 308.7486 15.06402368 61885","OBJECT_ID":"2020-088AN","DECAY_DATE":null,"LAUNCH_DATE":"2020-11-25","COUNTRY_CODE":"US","TIME_SYSTEM":"UTC","OBJECT_NAME":"STARLINK-1873","MEAN_MOTION":"15.06402368","APOAPSIS":"548.422","NORAD_CAT_ID":"47158","TLE_LINE1":"1 47158U 20088AN  22003.09901126  .00000947  00000-0  82441-4 0  9991","RA_OF_ASC_NODE":"304.7384","REF_FRAME":"TEME","CENTER_NAME":"EARTH","OBJECT_TYPE":"PAYLOAD","SEMIMAJOR_AXIS":"6925.341","PERIOD":"95.592","EPOCH":"2022-01-03T02:22:34.572864","MEAN_ELEMENT_THEORY":"SGP4"},{"TIME_SYSTEM":"UTC","OBJECT_NAME":"STARLINK-1874","MEAN_MOTION":"15.48887017","APOAPSIS":"420.989","NORAD_CAT_ID":"47159","DECAY_DATE":null,"LAUNCH_DATE":"2020-11-25","COUNTRY_CODE":"US","OBJECT_TYPE":"PAYLOAD","SEMIMAJOR_AXIS":"6798.118","PERIOD":"92.970","EPOCH":"2022-01-03T03:22:56.663040","MEAN_ELEMENT_THEORY":"SGP4","TLE_LINE1":"1 47159U 20088AP  22003.14093360  .00047955  00000-0  87779-3 0  9998","RA_OF_ASC_NODE":"302.3894","REF_FRAME":"TEME","CENTER_NAME":"EARTH","FILE":"3255250","RCS_SIZE":"LARGE","EPHEMERIS_TYPE":"0","PERIAPSIS":"418.977","MEAN_MOTION_DDOT":"0.0000000000000","ELEMENT_SET_NO":"999","MEAN_ANOMALY":"320.5805","CLASSIFICATION_TYPE":"U","GP_ID":"192967830","MEAN_MOTION_DOT":"0.00047955","REV_AT_EPOCH":"6192","SITE":"AFETR","INCLINATION":"53.0559","ARG_OF_PERICENTER":"39.5310","TLE_LINE2":"2 47159  53.0559 302.3894 0001480  39.5310 320.5805 15.48887017 61928","OBJECT_ID":"2020-088AP","ECCENTRICITY":"0.00014800","BSTAR":"0.00087779000000"},{"NORAD_CAT_ID":"47161","APOAPSIS":"548.584","MEAN_MOTION":"15.06401747","TIME_SYSTEM":"UTC","OBJECT_NAME":"STARLINK-1876","COUNTRY_CODE":"US","LAUNCH_DATE":"2020-11-25","DECAY_DATE":null,"MEAN_ELEMENT_THEORY":"SGP4","EPOCH":"2022-01-03T22:16:48.921600","PERIOD":"95.592","SEMIMAJOR_AXIS":"6925.343","OBJECT_TYPE":"PAYLOAD","CENTER_NAME":"EARTH","REF_FRAME":"TEME","RA_OF_ASC_NODE":"301.0227","TLE_LINE1":"1 47161U 20088AR  22003.92834400  .00000846  00000-0  75710-4 0  9996","PERIAPSIS":"545.833","EPHEMERIS_TYPE":"0","RCS_SIZE":"LARGE","FILE":"3256498","ARG_OF_PERICENTER":"48.6358","SITE":"AFETR","REV_AT_EPOCH":"6201","INCLINATION":"53.0551","GP_ID":"193017292","MEAN_MOTION_DOT":"0.00000846","CLASSIFICATION_TYPE":"U","MEAN_ANOMALY":"311.4802","ELEMENT_SET_NO":"999","MEAN_MOTION_DDOT":"0.0000000000000","OBJECT_ID":"2020-088AR","TLE_LINE2":"2 47161  53.0551 301.0227 0001986  48.6358 311.4802 15.06401747 62016","BSTAR":"0.00007571000000","ECCENTRICITY":"0.00019860"},{"OBJECT_ID":"2020-088AS","TLE_LINE2":"2 47162  53.0554 311.6367 0002087  58.5157 301.6036 15.06399954 61859","BSTAR":"0.00011629000000","ECCENTRICITY":"0.00020870","FILE":"3256498","PERIAPSIS":"545.768","EPHEMERIS_TYPE":"0","RCS_SIZE":"LARGE","MEAN_ANOMALY":"301.6036","ELEMENT_SET_NO":"999","MEAN_MOTION_DDOT":"0.0000000000000","ARG_OF_PERICENTER":"58.5157","SITE":"AFETR","REV_AT_EPOCH":"6185","INCLINATION":"53.0554","MEAN_MOTION_DOT":"0.00001451","GP_ID":"193018033","CLASSIFICATION_TYPE":"U","SEMIMAJOR_AXIS":"6925.349","OBJECT_TYPE":"PAYLOAD","MEAN_ELEMENT_THEORY":"SGP4","EPOCH":"2022-01-03T18:59:06.458208","PERIOD":"95.592","RA_OF_ASC_NODE":"311.6367","TLE_LINE1":"1 47162U 20088AS  22003.79104697  .00001451  00000-0  11629-3 0  9991","CENTER_NAME":"EARTH","REF_FRAME":"TEME","TIME_SYSTEM":"UTC","OBJECT_NAME":"STARLINK-1877","APOAPSIS":"548.659","NORAD_CAT_ID":"47162","MEAN_MOTION":"15.06399954","LAUNCH_DATE":"2020-11-25","DECAY_DATE":null,"COUNTRY_CODE":"US"},{"COUNTRY_CODE":"US","DECAY_DATE":null,"LAUNCH_DATE":"2020-11-25","MEAN_MOTION":"15.06402631","NORAD_CAT_ID":"47163","APOAPSIS":"548.539","OBJECT_NAME":"STARLINK-1878","TIME_SYSTEM":"UTC","REF_FRAME":"TEME","CENTER_NAME":"EARTH","TLE_LINE1":"1 47163U 20088AT  22003.35886745  .00003490  00000-0  25305-3 0  9996","RA_OF_ASC_NODE":"323.6138","PERIOD":"95.592","EPOCH":"2022-01-03T08:36:46.147680","MEAN_ELEMENT_THEORY":"SGP4","OBJECT_TYPE":"PAYLOAD","SEMIMAJOR_AXIS":"6925.340","GP_ID":"192969078","MEAN_MOTION_DOT":"0.00003490","CLASSIFICATION_TYPE":"U","SITE":"AFETR","REV_AT_EPOCH":"6164","INCLINATION":"53.0463","ARG_OF_PERICENTER":"56.7775","MEAN_MOTION_DDOT":"0.0000000000000","ELEMENT_SET_NO":"999","MEAN_ANOMALY":"303.3398","EPHEMERIS_TYPE":"0","RCS_SIZE":"LARGE","PERIAPSIS":"545.872","FILE":"3255250","ECCENTRICITY":"0.00019250","BSTAR":"0.00025305000000","TLE_LINE2":"2 47163  53.0463 323.6138 0001925  56.7775 303.3398 15.06402631 61648","OBJECT_ID":"2020-088AT"},{"OBJECT_ID":"2020-088AU","TLE_LINE2":"2 47164  53.0560 295.1227 0001607  56.1960 303.9182 15.06399573 62015","ECCENTRICITY":"0.00016070","BSTAR":"0.00005490700000","RCS_SIZE":"LARGE","EPHEMERIS_TYPE":"0","PERIAPSIS":"546.102","FILE":"3255250","GP_ID":"192968331","CLASSIFICATION_TYPE":"U","MEAN_MOTION_DOT":"0.00000536","ARG_OF_PERICENTER":"56.1960","REV_AT_EPOCH":"6201","SITE":"AFETR","INCLINATION":"53.0560","MEAN_MOTION_DDOT":"0.0000000000000","MEAN_ANOMALY":"303.9182","ELEMENT_SET_NO":"999","PERIOD":"95.592","MEAN_ELEMENT_THEORY":"SGP4","EPOCH":"2022-01-03T00:21:49.416192","OBJECT_TYPE":"PAYLOAD","SEMIMAJOR_AXIS":"6925.350","REF_FRAME":"TEME","CENTER_NAME":"EARTH","RA_OF_ASC_NODE":"295.1227","TLE_LINE1":"1 47164U 20088AU  22003.01515528  .00000536  00000-0  54907-4 0  9997","NORAD_CAT_ID":"47164","APOAPSIS":"548.328","MEAN_MOTION":"15.06399573","OBJECT_NAME":"STARLINK-1879","TIME_SYSTEM":"UTC","COUNTRY_CODE":"US","DECAY_DATE":null,"LAUNCH_DATE":"2020-11-25"},{"MEAN_MOTION":"15.06402417","NORAD_CAT_ID":"47165","APOAPSIS":"548.604","OBJECT_NAME":"STARLINK-1880","TIME_SYSTEM":"UTC","COUNTRY_CODE":"US","DECAY_DATE":null,"LAUNCH_DATE":"2020-11-25","PERIOD":"95.592","EPOCH":"2022-01-03T05:16:24.254688","MEAN_ELEMENT_THEORY":"SGP4","OBJECT_TYPE":"PAYLOAD","SEMIMAJOR_AXIS":"6925.341","REF_FRAME":"TEME","CENTER_NAME":"EARTH","TLE_LINE1":"1 47165U 20088AV  22003.21972517  .00000825  00000-0  74282-4 0  9994","RA_OF_ASC_NODE":"314.2054","RCS_SIZE":"LARGE","EPHEMERIS_TYPE":"0","PERIAPSIS":"545.809","FILE":"3255250","MEAN_MOTION_DOT":"0.00000825","GP_ID":"192968581","CLASSIFICATION_TYPE":"U","REV_AT_EPOCH":"6176","SITE":"AFETR","INCLINATION":"53.0551","ARG_OF_PERICENTER":"59.6734","MEAN_MOTION_DDOT":"0.0000000000000","ELEMENT_SET_NO":"999","MEAN_ANOMALY":"300.4454","TLE_LINE2":"2 47165  53.0551 314.2054 0002018  59.6734 300.4454 15.06402417 61768","OBJECT_ID":"2020-088AV","ECCENTRICITY":"0.00020180","BSTAR":"0.00007428200000"},{"GP_ID":"193017538","CLASSIFICATION_TYPE":"U","MEAN_MOTION_DOT":"0.00024796","ARG_OF_PERICENTER":"110.0034","INCLINATION":"53.0481","SITE":"AFETR","REV_AT_EPOCH":"6256","MEAN_MOTION_DDOT":"0.0000000000000","MEAN_ANOMALY":"250.1243","ELEMENT_SET_NO":"999","RCS_SIZE":"LARGE","EPHEMERIS_TYPE":"0","PERIAPSIS":"463.272","FILE":"3256498","ECCENTRICITY":"0.00025700","BSTAR":"0.00076103000000","OBJECT_ID":"2020-088AW","TLE_LINE2":"2 47166  53.0481 262.2273 0002570 110.0034 250.1243 15.33618018 62566","COUNTRY_CODE":"US","DECAY_DATE":null,"LAUNCH_DATE":"2020-11-25","NORAD_CAT_ID":"47166","APOAPSIS":"466.789","MEAN_MOTION":"15.33618018","TIME_SYSTEM":"UTC","OBJECT_NAME":"STARLINK-1881","REF_FRAME":"TEME","CENTER_NAME":"EARTH","RA_OF_ASC_NODE":"262.2273","TLE_LINE1":"1 47166U 20088AW  22003.92918075  .00024796  00000-0  76103-3 0  9998","PERIOD":"93.896","MEAN_ELEMENT_THEORY":"SGP4","EPOCH":"2022-01-03T22:18:01.216800","OBJECT_TYPE":"PAYLOAD","SEMIMAJOR_AXIS":"6843.165"},{"FILE":"3255250","RCS_SIZE":"LARGE","EPHEMERIS_TYPE":"0","PERIAPSIS":"544.232","MEAN_MOTION_DDOT":"0.0000000000000","ELEMENT_SET_NO":"999","MEAN_ANOMALY":"213.3015","GP_ID":"192969579","CLASSIFICATION_TYPE":"U","MEAN_MOTION_DOT":"0.00001005","SITE":"AFETR","INCLINATION":"53.0550","REV_AT_EPOCH":"6175","ARG_OF_PERICENTER":"146.8243","TLE_LINE2":"2 47167  53.0550 314.5761 0004290 146.8243 213.3015 15.06403373 61751","OBJECT_ID":"2020-088AX","ECCENTRICITY":"0.00042900","BSTAR":"0.00008642200000","OBJECT_NAME":"STARLINK-1884","TIME_SYSTEM":"UTC","MEAN_MOTION":"15.06403373","APOAPSIS":"550.174","NORAD_CAT_ID":"47167","DECAY_DATE":null,"LAUNCH_DATE":"2020-11-25","COUNTRY_CODE":"US","OBJECT_TYPE":"PAYLOAD","SEMIMAJOR_AXIS":"6925.338","PERIOD":"95.592","EPOCH":"2022-01-03T03:19:38.160768","MEAN_ELEMENT_THEORY":"SGP4","TLE_LINE1":"1 47167U 20088AX  22003.13863612  .00001005  00000-0  86422-4 0  9992","RA_OF_ASC_NODE":"314.5761","REF_FRAME":"TEME","CENTER_NAME":"EARTH"},{"BSTAR":"0.00178930000000","ECCENTRICITY":"0.00017140","TLE_LINE2":"2 47168  53.0580 308.0956 0001714  35.4216 324.6896 15.29497624 61851","OBJECT_ID":"2020-088AY","ELEMENT_SET_NO":"999","MEAN_ANOMALY":"324.6896","MEAN_MOTION_DDOT":"0.0000000000000","INCLINATION":"53.0580","SITE":"AFETR","REV_AT_EPOCH":"6185","ARG_OF_PERICENTER":"35.4216","GP_ID":"192967831","CLASSIFICATION_TYPE":"U","MEAN_MOTION_DOT":"0.00051868","FILE":"3255250","PERIAPSIS":"476.140","RCS_SIZE":"LARGE","EPHEMERIS_TYPE":"0","TLE_LINE1":"1 47168U 20088AY  22003.21696102  .00051868  00000-0  17893-2 0  9996","RA_OF_ASC_NODE":"308.0956","CENTER_NAME":"EARTH","REF_FRAME":"TEME","SEMIMAJOR_AXIS":"6855.450","OBJECT_TYPE":"PAYLOAD","EPOCH":"2022-01-03T05:12:25.432128","MEAN_ELEMENT_THEORY":"SGP4","PERIOD":"94.149","LAUNCH_DATE":"2020-11-25","DECAY_DATE":null,"COUNTRY_CODE":"US","TIME_SYSTEM":"UTC","OBJECT_NAME":"STARLINK-1885","MEAN_MOTION":"15.29497624","APOAPSIS":"478.490","NORAD_CAT_ID":"47168"}];
